JILIN-1 GAOFEN 3A       
1 44312U 19032C   26068.74542089  .00016264  00000+0  55381-3 0  9993
2 44312  44.9746 183.2861 0002618 111.2900 248.8263 15.30271310372592
STARLINK-34759          
1 65096U 25167U   26068.26133918  .00027420  00000+0  93482-3 0  9995
2 65096  53.1609  28.6907 0001096  80.5699 279.5426 15.30188438 33414
